[{"OBJECT_NAME":"OBJECT BD","OBJECT_ID":"2025-313BD","EPOCH":"2026-03-09T15:06:44.992224","MEAN_MOTION":15.3000236,"ECCENTRICITY":0.00072867,"INCLINATION":97.397,"RA_OF_ASC_NODE":145.285,"ARG_OF_PERICENTER":333.4514,"MEAN_ANOMALY":26.6352,"EPHEMERIS_TYPE":0,"CLASSIFICATION_TYPE":"U","NORAD_CAT_ID":67299,"ELEMENT_SET_NO":999,"REV_AT_EPOCH":1083,"BSTAR":0.0027633805,"MEAN_MOTION_DOT":0.0008101,"MEAN_MOTION_DDOT":0},{"OBJECT_NAME":"STARLINK-36473","OBJECT_ID":"2026-002W","EPOCH":"2026-03-09T18:38:30.151968","MEAN_MOTION":15.27591602,"ECCENTRICITY":0.00016319,"INCLINATION":43.0009,"RA_OF_ASC_NODE":324.6501,"ARG_OF_PERICENTER":269.827,"MEAN_ANOMALY":90.2395,"EPHEMERIS_TYPE":0,"CLASSIFICATION_TYPE":"U","NORAD_CAT_ID":67325,"ELEMENT_SET_NO":999,"REV_AT_EPOCH":1125,"BSTAR":0.00097584716,"MEAN_MOTION_DOT":0.00026698,"MEAN_MOTION_DDOT":0}]
